NORAD_CAT_ID,OBJECT_NAME,OBJECT_TYPE,EPOCH,MEAN_MOTION,ECCENTRICITY,INCLINATION,RA_OF_ASC_NODE,ARG_OF_PERICENTER,MEAN_ANOMALY,BSTAR,MEAN_MOTION_DOT,MEAN_MOTION_DDOT,TLE_LINE0,TLE_LINE1,TLE_LINE2,SEMIMAJOR_AXIS,PERIOD,APOGEE,PERIGEE,DECAYED
55668.0,STARLINK-5455,PAYLOAD,2024-08-19 12:01:24,14.98327367,0.0002082,70.0028,154.6016,276.6369,83.4553,-4.1119e-05,-5.83e-06,0.0,0 STARLINK-5455,1 55668U 23021AS  24232.50097711 -.00000583  00000-0 -41119-4 0  9999,2 55668  70.0028 154.6016 0002082 276.6369  83.4553 14.98327367 84025,6950.201,96.107,573.513,570.619,0.0
55668.0,STARLINK-5455,PAYLOAD,2024-08-20 04:02:45,14.98325796,0.0002566,70.0012,152.92,263.2565,96.8303,-6.4832e-05,-8.66e-06,0.0,0 STARLINK-5455,1 55668U 23021AS  24233.16857855 -.00000866  00000-0 -64832-4 0  9996,2 55668  70.0012 152.9200 0002566 263.2565  96.8303 14.98325796 84420,6950.206,96.107,573.854,570.287,0.0
55668.0,STARLINK-5455,PAYLOAD,2024-08-20 20:04:05,14.98334467,0.0002839,70.0007,151.2369,267.2668,92.8166,7.6021e-05,8.14e-06,0.0,0 STARLINK-5455,1 55668U 23021AS  24233.83616921  .00000814  00000-0  76021-4 0  9991,2 55668  70.0007 151.2369 0002839 267.2668  92.8166 14.98334467 84229,6950.179,96.107,574.017,570.071,0.0
55668.0,STARLINK-5455,PAYLOAD,2024-08-21 04:04:44,14.9833803,0.0002741,70.0008,150.3952,264.2492,95.8355,0.00012847,1.441e-05,0.0,0 STARLINK-5455,1 55668U 23021AS  24234.16996520  .00001441  00000-0  12847-3 0  9996,2 55668  70.0008 150.3952 0002741 264.2492  95.8355 14.98338030 84573,6950.168,96.106,573.938,570.128,0.0
55668.0,STARLINK-5455,PAYLOAD,2024-08-21 20:06:06,14.98314507,0.0002804,70.0015,148.7146,257.3531,102.7314,0.00024202,2.795e-05,0.0,0 STARLINK-5455,1 55668U 23021AS  24234.83757762  .00002795  00000-0  24202-3 0  9994,2 55668  70.0015 148.7146 0002804 257.3531 102.7314 14.98314507 84378,6950.241,96.108,574.055,570.157,0.0
